ECHOSTAR 25             
1 68126U 26045A   26169.51662652  .00000000  00000+0  00000+0 0  9995
2 68126   0.0193  11.6095 0001823  75.7143 255.4241  1.00268340  1009
